City,State,Zip,Country
Los Angeles,CA,90049,USA
Rochester,NY,14624,USA
Tulsa,OK,74136,USA
Soldotna,AK,99669,
Sitka,AK,99835,
Anchorage,AK,99517,
Anchorage,AK,99517,
Montgomery,AL,36104,
Somerville,AL,35670,
Arab,AL,35016,
Athens,AL,35611,
Auburn,AL,36849,
Birmingham,AL,35242,
Guntersville,AL,35976,
Athens,AL,35611,
New Market,AL,35761,
Loxley,AL,36551,
Florence,AL,35633,
Dothan,AL,36303,
Decatur,AL,35601,
Dothan,AL,36301,
Northport,AL,35476,
Gadsden,AL,35907,
Fairhope,AL,36532,
Greenville,AL,36037,
MOBILE,AL,36610,
MOBILE,AL,36610,
Hayden,AL,35079,
Dothan,AL,36303,
Guntersville,AL,35976,
Opelika,AL,36803,
Helena,AL,35080,
Athens,AL,35613,
Huntsville,AL,35811,
Mobile,AL,36608,
Athens,AL,35613,
Gurley,AL,35748,
Birmingham,AL,35203,
Semmes,AL,36575,
Huntsville,AL,35803,
Montgomery,AL,36108,
Prattville,AL,36066,
Huntsville,AL,35802,
Robertsdale,AL,36567,
Russellville,AL,35653,
Madison,AL,35757,
Montgomery,AL,36116,
Scottsboro,AL,35768,
Hoover,AL,35226,
Fyffe,AL,35971,
Alabaster,AL,35007,
Birmingham,AL,35226,
Tuscaloosa,AL,35401,
Huntsville,AL,35899,
Birmingham,AL,35209,
Jasper,AL,35501,
Trinity,AL,35673,
Winfield,AL,35594,
APO,AP,96367,
APO,AP,96278,
Beebe,AR,72012,
Benton,AR,72019,
State University,AR,72467,
Russellville,AR,72801,
Little Rock,AR,72202,
Little Rock,AR,72206,
Paragould,AR,72450,
Benton,AR,72015,
Brookland,AR,72417,
Cabot,AR,72023,
Mount Ida,AR,71957,
Bella Vista,AR,72715,
Benton,AR,72019,
Conway,AR,72032,
Conway,AR,72034-3749,
Alexander,AR,72002,
Fort Smith,AR,72916,
Harrison,AR,72601,
Arkadelphia,AR,71923,
Bryant,AR,72089,
Elkins,AR,72727,
Little Rock,AR,72201,
Little Rock,AR,72207,
Hot Springs,AR,71901,
Gravette,AR,72736,
Greenwood,AR,72936,
Conway,AR,72032,
Magnolia,AR,71753,
Rogers,AR,72758,
England,AR,72046,
Lonoke,AR,72086,
Mayflower,AR,72106,
Searcy,AR,72143,
Little Rock,AR,72216,
North Little Rock,AR,72114,
Paragould,AR,72450,
Paris,AR,72855,
Perryville,AR,72126,
Searcy,AR,72143,
Jonesboro,AR,72404,
Rose Bud,AR,72137,
Searcy,AR,72143,
Siloam Springs,AR,72761,
Little Rock,AR,72223,
Little Rock,AR,72204,
Monticello,AR,71656,
Pine Bluff,AR,71611,
Vilonia,AR,72173,
Waldron,AR,72958,
West Fork,AR,72774,
Jonesboro,AR,72404,
White Hall,AR,71602,
Wynne,AR,72396,
Fort Mohave,AZ,86426,
Gilbert,AZ,85234,
Mesa,AZ,85204,
Glendale,AZ,85304,
Tucson,AZ,85716,
Lakeside,AZ,85929,
Phoenix,AZ,85032,
Thatcher,AZ,85552,
Queen Creek,AZ,85142,
Buckeye,AZ,85326,
Tucson,AZ,85704,
Casa Grande,AZ,85122,
Phoenix,AZ,85023,
Chandler,AZ,85248,
Scottsdale,AZ,85255,
Paradise Valley,AZ,85253,
Scottsdale,AZ,85254,
Paradise Valley,AZ,85253,
Tucson,AZ,85741-3906,
Phoenix,AZ,85032,
Tucson,AZ,85721,
Peoria,AZ,85383,
Avondale,AZ,85392,
Tucson,AZ,85745,
Florence,AZ,85132,
Scottsdale,AZ,85260,
Tucson,AZ,85750,
Fountain Hills,AZ,85268,
Tempe,AZ,85282,
Avondale,AZ,85323,
Scottsdale,AZ,85255-6413,
Phoenix,AZ,85048,
Phoenix,AZ,85044,
Scottsdale,AZ,85259,
Phoenix,AZ,85023,
Peoria,AZ,85381,
Peoria,AZ,85383,
Peoria,AZ,85381,
Glendale,AZ,85308,
Litchfield Park,AZ,85340,
Maricopa,AZ,85138,
Maricopa,AZ,85139,
Phoenix,AZ,85044,
Tempe,AZ,85282,
Phoenix,AZ,85012,
Scottsdale,AZ,85255,
Prescott,AZ,86301,
Avondale,AZ,85323,
Morenci,AZ,85540,
Phoenix,AZ,85044,
Mesa,AZ,85213-5315,
Phoenix,AZ,85050,
Rock Point,AZ,86545,
Roy Bryant,AZ,,
Peoria,AZ,85383,
Phoenix,AZ,85053,
Mesa,AZ,85213,
Flagstaff,AZ,86001,
Mesa,AZ,85208,
Peoria,AZ,85382,
Flagstaff,AZ,86004,
Tolleson,AZ,85353,
Tempe,AZ,85283,
Chandler,AZ,85226,
Surprise,AZ,85388,
Douglas,AZ,85607,
Lompoc,CA,93436,
Rolling Hills,CA,90274,
San Rafael,CA,94901,
Oakland,CA,94606,
Bakersfield,CA,93305,
Gardena,CA,90248,
Beverly Hills,CA,90210,
Walnut Creek,CA,94598,
Walnut Creek,CA,94598-4560,
Berkeley,CA,94704,
Encinitas,CA,92024,
Mission Hills,CA,91345-1197,
Clayton,CA,94517,
Murietta,CA,92562,
Rancho Cucamonga,CA,91737,
San Jose,CA,95124,
Atherton,CA,94027,
Chatsworth,CA,91311,
Glendale,CA,91201,
Moorpark,CA,93021,
Commerce,CA,90040,
Carson,CA,90747,
Santa Ana,CA,92704,
Campbell,CA,95008,
Vacaville,CA,95688,
Carmel,CA,93923,
Valley Springs,CA,95252,
Cerritos,CA,90703,
Hayward,CA,94545,
San Luis Obispo,CA,93401,
Hillsborough,CA,94010,
National City,CA,91950,
Riverside,CA,92508,
Fairfield,CA,94533,
Clovis,CA,93619,
San Ramon,CA,94583,
Chula Vista,CA,91911,
Fontana,CA,92336,
Truckee,CA,96161,
San Jose,CA,95125,
Bakersfield,CA,93313,
San Rafael,CA,94901,
Sacramento,CA,95824,
San Jose,CA,95014,
Belvedere,CA,94920,
Atwater,CA,95301,
Moraga,CA,94556,
Vista,CA,92084,
Alberta,CA,T0H 3S0,
Valencia,CA,91354,
Copperopolis,CA,95228,
Palm Desert,CA,92211,
Murrieta,CA,92562,
Dos Palos,CA,93620,
Los Angeles,CA,90041,
Bakersfield,CA,93306,
Templeton,CA,93465,
Brentwood,CA,94513,
Los Angeles,CA,90044,
Bonita,CA,91902,
Sacramento,CA,95821,
Merced,CA,95348,
Salinas,CA,93905,
El Cerrito,CA,94530,
Portola Valley,CA,94028,
San Mateo,CA,94403,
Orange,CA,92865,
Pacific Palisades,CA,90272,
Fresno,CA,93730,
Yuba City,CA,95993,
Torrance,CA,90501,
Elk Grove,CA,95826,
Thousand Oaks,CA,91360,
Firebaugh,CA,93622,
Lemoore,CA,93245,
Oakley,CA,94561,
Sacramento,CA,95820,
Manteca,CA,95336,
Pinole,CA,94564,
Bakersfield,CA,93314,
San Francisco,CA,94121,
Palo Cedro,CA,96073,
Pleasonton,CA,94566,
San Juan Capistrano,CA,92675,
Modesto,CA,95356,
Tracy,CA,95304,
Half Moon Bay,CA,94019,
Vacaville,CA,95687,
San Jose,CA,95118,
Discovery Bay,CA,94505,
Tracy,CA,95377,
Irvine,CA,92618,
San Diego,CA,92110,
San Mateo,CA,94403,
Moraga,CA,94556,
Oxnard,CA,93033,
Morgan Hill,CA,95037,
Redwood City,CA,94065-1400,
Clovis,CA,93619,
Stockton,CA,95204,
Burlingame,CA,94010,
San Francisco,CA,94134,
San Rafael,CA,94901,
Rancho Sante Fe,CA,92067,
Granite Bay,CA,95746,
San Diego,CA,92182,
Yuba City,CA,95991,
Woodside,CA,94062,
Gilroy,CA,95020-3303,
Mission Viejo,CA,92691,
Clovis,CA,93619,
Groveland,CA,95321,
Taft,CA,93268,
Altadena,CA,91001,
Murrieta,CA,92563,
Morgan Hill,CA,95037,
Paramount,CA,90723,
Grover Beach,CA,93433,
Inglewood,CA,90301,
Mammoth Lakes,CA,93546,
Danville,CA,94506,
Sutter Creek,CA,95685,
Watsonville,CA,95076-4167,
Covina,CA,91724,
San Jose,CA,95125,
San Leandro,CA,94577,
Bakersfield,CA,93301,
Lafayette,CA,94549,
Novato,CA,94949,
Camarillo,CA,93012,
Los Angeles,CA,90301,
Simi Valley,CA,93065,
Sonoma,CA,95476,
Elk Grove,CA,95757,
Modesto,CA,95357,
Montebello,CA,90640,
Napa,CA,94558,
Kelseyville,CA,95451,
Placerville,CA,95667,
Clovis,CA,93611,
Laguna Beach,CA,92651,
Atwater,CA,95301,
Los Altos,CA,94022,
San Jose,CA,95124,
Modesto,CA,95357,
Fountain Valley,CA,92708,
Emeryville,CA,94608,
Sacramento,CA,95821,
Orangevale,CA,95662,
Penryn,CA,95663,
Oroville,CA,95966,
Pleasanton,CA,94588,
Los Angeles,CA,90034,
San Francisco,CA,94118,
San Jose,CA,95125,
Los Angeles,CA,90077,
Fullerton,CA,92835,
Napa,CA,94558,
Northridge,CA,91324,
Sacramento,CA,95831,
Truckee,CA,96161,
San Francisco,CA,94132-1401,
Torrance,CA,90505,
El Monte,CA,91732,
San Francisco,CA,94080,
San Jose,CA,95125,
Lemoore,CA,93245,
San Carlos,CA,94070,
Petaluma,CA,94954,
Healdsburg,CA,95448,
Los Angeles,CA,90004,
Riverside,CA,92508,
Marysville,CA,95901,
Los Gatos,CA,95032,
Roseville,CA,95747,
La Canada,CA,91011,
Tarzana,CA,91356,
Atwater,CA,95301,
Thousand Oaks,CA,91362,
Santa Clara,CA,95054,
Clovis,CA,93611,
Atwater,CA,95301,
Bakersfield,CA,93311,
San Francisco,CA,94127,
Oregon House,CA,95962,
Milpitas,CA,95035,
Tulare,CA,93274,
Modesto,CA,95358,
Los Altos Hills,CA,94022,
Cupertino,CA,95014,
Morro Bay,CA,93442,
Paramount,CA,90723,
Needles,CA,92363,
La Mirada,CA,90638,
Newbury Park,CA,91320,
Glendora,CA,91741-2758,
Norco,CA,92860,
Vallejo,CA,94591,
Irvine,CA,92620,
San Leandro,CA,94577,
San Francisco,CA,94109,
Garden Grove,CA,92845,
Palos Verdes Estates,CA,90274-1869,
Paradise,CA,95967,
Paso Robles,CA,93446,
San Diego,CA,92126,
Lodi,CA,95242,
Fresno,CA,93702,
Perris,CA,92571,
Pacific Palisades,CA,90272,
Porterville,CA,93257,
Fairfield,CA,94534,
Woodland,CA,95776,
Turlock,CA,95382,
Inglewood,CA,90301,
Fremont,CA,94539,
San Mateo,CA,94402,
Red Bluff,CA,96080,
Redlands,CA,92373,
Tracy,CA,95376,
Clayton,CA,94517,
Seaside,CA,93955,
Concord,CA,94521,
San Diego,CA,92104,
Millbrae,CA,94030,
Modesto,CA,95351,
Menlo Park,CA,94025,
La Mesa,CA,91941,
Livermore,CA,94550,
Vacaville,CA,95687,
Carmichael,CA,95608,
Tiburon,CA,94920,
Berkeley,CA,94706,
San Mateo,CA,94402,
Palo Alto,CA,94304,
San Clemente,CA,92672,
Los Angeles,CA,90065,
Fresno,CA,93703,
San Jose,CA,95135,
San Mateo,CA,94010,
San Ramon,CA,94583-1397,
Pleasanton,CA,94588,
Canyon Country,CA,91351,
Santa Monica,CA,90405,
Santa Rosa,CA,95401-4303,
La Mesa,CA,91941,
San Luis Obispo,CA,93401,
Concord,CA,94519,
Fontana,CA,92336,
Gardena,CA,90248,
Coarsegold,CA,93614,
Redding,CA,96003-7692,
Redding,CA,96001,
Shasta Lake,CA,96019,
Hemet,CA,92545,
San Francisco,CA,94129,
Avenal,CA,93204,
Redding,CA,96003,
Diamond Springs,CA,95619,
San Marcos,CA,92078,
La Habra,CA,90631,
St. Helena,CA,94574,
Glendora,CA,91741,
Stanford,CA,94305,
Yuba City,CA,95993,
Alamo,CA,94507,
San Clemente,CA,92673,
Tracy,CA,95377,
Alamo,CA,94507,
Carson,CA,90746,
Lakeside,CA,92040,
Sutter,CA,95982,
Menlo Park,CA,94025,
La Palma,CA,90623,
Hemet,CA,92545,
Temple City,CA,91780,
Modesto,CA,95358,
San Jose,CA,95136,
Hollister,CA,95023,
Alamo,CA,94507,
Visalia,CA,93292,
Placerville,CA,95667,
San Jose,CA,95127,
Tracy,CA,95376,
Turlock,CA,95382,
Merced,CA,95343,
El Dorado,CA,95623,
San Mateo,CA,94403,
San Diego,CA,92127,
San Jose,CA,95131,
Temecula,CA,92590,
Moreno Valley,CA,92551,
Watsonville,CA,95076,
Big Bear Lake,CA,92315,
Moraga,CA,94556,
City of Industry,CA,90601,
Woodlake,CA,93286,
Woodland,CA,95776,
Clovis,CA,93619,
Ukiah,CA,95482,
Windsor,CO,80550,
Westminster,CO,80030,
Grand Junction,CO,81506,
Arvada,CO,80004,
Edwards,CO,81632,
Grand Junction,CO,81505,
Littleton,CO,80126,
Broomfield,CO,80023,
Castle Pines,CO,80108,
Longmont,CO,80504,
Parker,CO,80138,
Walsenburg,CO,81089,
Colorado Springs,CO,80918,
Fort Collins,CO,80525,
Denver,CO,80204,
Idaho Springs,CO,80452,
Newcastle,CO,81647,
Golden,CO,80401,
Littleton,CO,80124,
Broomfield,CO,80021,
Westcliffe,CO,81252,
Denver,CO,80235,
Parker,CO,80138,
Littleton,CO,80127,
Lone Tree,CO,80124,
Aspen,CO,81611,
Colorado Springs,CO,80917,
Greeley,CO,80631,
Commerce City,CO,80022,
Colorado Springs,CO,80921,
Fort Lupton,CO,80621,
Elizabeth,CO,80107,
Rifle,CO,81650,
Arvada,CO,80002,
Broomfield,CO,80020,
Fowler,CO,81039,
Englewood,CO,80112,
Highlands Ranch,CO,80126,
Parachute,CO,81635,
Greeley,CO,80634,
Holyoke,CO,80734,
Morrison,CO,80465,
Greeley,CO,80634,
Centennial,CO,80112,
Erie,CO,80516,
Highlands Ranch,CO,80130,
Centennial,CO,80015,
Golden,CO,80403,
Louisville,CO,80027,
Eaton,CO,80615,
Aurora,CO,80018,
Golden,CO,80401,
Wiggins,CO,80654,
Colorado Springs,CO,80920,
Greeley,CO,80634-4261,
Littleton,CO,80127,
Boulder,CO,80301,
Las Animas,CO,81054,
Littleton,CO,80127,
Colorado Springs,CO,80923,
Lyons,CO,80540,
Stoneham,CO,80754,
Laporte,CO,80535,
Berthoud,CO,80513,
Longmont,CO,80503,
Haxtun,CO,80731,
Grand Junction,CO,81501,
Wiggins,CO,80654,
Littleton,CO,80120,
Centennial,CO,80112,
Highland Ranch,CO,80126,
Sterling,CO,80751,
La Junta,CO,81050,
Monument,CO,80132,
Paonia,CO,81428,
Pueblo,CO,81003,
Colorado Springs,CO,80906,
Boone,CO,81025,
Lone Tree,CO,80124,
Erie,CO,80516,
Englewood,CO,80111,
Broomfield,CO,80023,
Parker,CO,80134,
Greeley,CO,80631,
Parker,CO,80134,
Parker,CO,80138,
Longmont,CO,80503,
Edwards,CO,81632,
Denver,CO,80210,
Aurora,CO,80015,
Pueblo,CO,81006,
Broomfield,CO,80020,
Sterling,CO,80751,
Montrose,CO,81403,
Frisco,CO,80442,
Mead,CO,80542,
Swink,CO,81077,
Evergreen,CO,80439,
Sheridan,CO,80110,
Greely,CO,80634,
Grand Junction,CO,81505,
Steamboat Springs,CO,80487,
Brighton,CO,80601,
Colorado Springs,CO,80905,
Aurora,CO,80018,
Colorado Springs,CO,80920,
Wray,CO,80758,
Yuma,CO,80759,
Canton,CT,6019,
Durham,CT,6422,
Darien,CT,6820,
East Hartford,CT,6118,
Windsor,CT,6095,
Trumbull,CT,6611,
Sandy Hook,CT,6482,
Milford,CT,6460,
Stamford,CT,6905,
Ellington,CT,6029,
Newington,CT,6111,
East Berlin,CT,6023,
Darien,CT,6820,
Lakeville,CT,6039,
Trumbull,CT,6611,
New London,CT,6320,
Windsor,CT,6095,
Washington,DC,20017,
Washington,DC,20015,
Washington,DC,20020,
Washington,DC,20002,
Washington,DC,20008,
Wilmington,DE,19803,
Bo Tomas,DE,,
Palm Beach Gardens,FL,33418,
Tampa,FL,33647,
Altha,FL,32421,
Lakeland,FL,33803,
Boca Raton,FL,33431,
Gainesville,FL,32608,
Vero Beach,FL,32968,
Southwest Ranches,FL,33330,
Melbourne,FL,32940,
Clearwater,FL,33765,
Ave Maria,FL,34142,
Miami,FL,33172,
Tampa,FL,33611,
Belleview,FL,34420,
Palm Beach Gardens,FL,33418,
Tampa,FL,33615,
Boca Raton,FL,33431,
Miramar,FL,33027,
Tallahassee,FL,32301,
Ormond Beach,FL,32174-4225,
Fort Myers,FL,33912,
Ponte Vedra Beach,FL,32082,
St. Petersburg,FL,33703,
Cape Coral,FL,33993,
Fort Lauderdale,FL,33308-5332,
Belleview,FL,34420,
Miami,FL,33133,
Doral,FL,33172-4810,
Sarasota,FL,34243,
Okeechobee,FL,34974,
Fort Walton Beach,FL,32548,
Saftey Harbor,FL,34695,
Royal Palm Beach,FL,33414,
Cape Coral,FL,33904,
Lakeland,FL,33809,
Palm Harbor,FL,34684,
Doral,FL,33126,
Fort Meyers Beach,FL,33931,
Daytona Beach,FL,32114,
Spring Hill,FL,34609,
Arcadia,FL,34266,
Daytona Beach,FL,32114,
Boca Raton,FL,33431,
Palm Beach Gardens,FL,33410,
Miami,FL,33166,
Fort Myers,FL,33912,
Melbourne,FL,32935,
North Fort Myers,FL,33917,
Hialeah Gardens,FL,33018,
Orlando,FL,32812,
Jupiter,FL,33435,
Sarasota,FL,34238,
Fort Myers,FL,33913,
Hialeah,FL,33012,
Belle Glade,FL,33430,
Naples,FL,34104,
Tallahassee,FL,32306,
Tallahassee,FL,32311,
West Park,FL,33023,
Pompano Beach,FL,33064,
Freeport,FL,32439,
Miami,FL,33185,
Orlando,FL,32837,
Gainesville,FL,32608,
Gainesville,FL,32653,
Miami,FL,33155,
Sarasota,FL,34240,
Miami,FL,33178,
Jacksonville,FL,32216,
Palm Bay,FL,32908,
Weston,FL,33327,
Medley,FL,33178,
Key West,FL,33040,
Jacksonville,FL,32256,
Jupiter,FL,33477,
Pompano Beach,FL,33069,
Jay,FL,32565,
Greenacres,FL,33463,
Venice,FL,34293,
Lynn Haven,FL,32444,
Crawfordville,FL,32327,
Alachua,FL,32615,
Lighthouse Point,FL,33064,
Brandon,FL,33511,
Miromar Lakes,FL,33913,
Fort Pierce,FL,34947,
Miami,FL,33161,
Tierra Verde,FL,33715,
Newberry,FL,32669,
Medley,FL,33166,
Tavernier,FL,33070,
Jupiter,FL,33478,
Osprey,FL,34229,
Fleming Island,FL,32009,
LaBelle,FL,33935,
Green Cove Springs,FL,32043,
Lake Mary,FL,32746,
Boynton Beach,FL,33436,
Lakeland,FL,33803,
Palm Beach,FL,33418,
Bristol,FL,32321,
Valparaiso,FL,32580,
Kissimmee,FL,34744,
Medley,FL,33178,
Casselberry,FL,32707,
Jacksonville,FL,32219,
Tallahassee,FL,32312,
Clermont,FL,34711,
Parkland,FL,33076,
Sanford,FL,32771,
Ft. Lauderdale,FL,33304,
Melbourne,FL,32901,
Melbourne Beach,FL,32951,
Miami Beach,FL,33139,
Miami,FL,33183,
Miami,FL,33176-6828,
Middleburg,FL,32068,
Port St. Lucie,FL,34953,
Lithia,FL,33547,
Valparaiso,FL,32580,
Winter Park,FL,32789,
Miami,FL,33132,
Davie,FL,33330,
Gainesville,FL,32607,
Ocala,FL,34471,
Boca Raton,FL,33496,
Orlando,FL,32819,
Oviedo,FL,32765,
Pace,FL,32571,
West Palm Beach,FL,33416,
Clermont,FL,34711,
Weston,FL,33327,
Brandon,FL,33511,
Pensacola,FL,32503,
Stewart,FL,34994,
Groveland,FL,34736,
Marianna,FL,32448,
Daytona Beach Shores,FL,32118,
Fort Lauderdale,FL,33304,
Stuart,FL,34997,
Palm Harbor,FL,34685,
Boca Raton,FL,33428,
Naples,FL,34117,
Dania Beach,FL,33004,
Hobe Sound,FL,33455,
Deerfield Beach,FL,33441,
Miramar,FL,33025,
Delray Beach,FL,33483,
Gulf Breeze,FL,32563,
Boca Raton,FL,33434,
Sarasota,FL,34238,
Davie,FL,33331,
Lutz,FL,33559,
Fort Lauderdale,FL,33308,
Port Charlotte,FL,33948,
Sneads,FL,32460,
Hollywood,FL,33020,
Lakeland,FL,33801,
Fort Meyers,FL,33916,
Miami,FL,33165,
Tampa,FL,33634,
St. Petersburg,FL,33710,
Riviera Beach,FL,33404,
Safety Harbor,FL,34695,
Tampa,FL,33611,
Clearwater,FL,33762,
Tampa,FL,33603-2811,
Tampa,FL,33634,
West Palm Beach,FL,33411,
St. Augustine,FL,32080,
Dunedin,FL,34698,
Lake Worth,FL,33463,
Odessa,FL,33556,
Odessa,FL,33556,
Gainesville,FL,32611,
Tampa,FL,33620-5050,
Tampa,FL,33611,
Port St. Lucie,FL,34986,
Orlando,FL,,
Venice,FL,34285,
Miami,FL,33133,
Pensacola,FL,32526,
Maitland,FL,32751,
Greenacres,FL,33463,
Douglasville,GA,30135,
Lawrenceville,GA,30045,
Savannah,GA,31419,
Duluth,GA,30096,
St. Simons Island,GA,31522,
Bremen,GA,30110,
Kennesaw,GA,30152,
Alto,GA,30510,
Albany,GA,31707,
Cartersville,GA,30120,
Carrollton,GA,30116,
Douglasville,GA,30134,
Atlanta,GA,30342,
Hartwell,GA,30643,
Marietta,GA,30062,
Dacula,GA,30019,
Rome,GA,30161,
Winder,GA,30680,
Leesburg,GA,31763,
Atlanta,GA,30360,
Flowery Branch,GA,30542,
Milledgeville,GA,31061,
Atlanta,GA,30332-0455,
Lawrenceville,GA,30043,
Duluth,GA,30096,
Lynons,GA,30436,
Loganville,GA,30052,
Dacula,GA,30019,
Forest Park,GA,30297,
Atlanta,GA,30345,
Carrollton,GA,30116,
Dallas,GA,30157,
Cleveland,GA,30528,
LaGrange,GA,30240,
Evans,GA,30809,
Fairburn,GA,30213,
Duluth,GA,30096,
Locust Grove,GA,30248,
Loganville,GA,30052,
Menlo,GA,30731,
Athens,GA,30606,
Lawrenceville,GA,30043,
Lindale,GA,30147,
Atlanta,GA,30305,
Ball Ground,GA,30107,
Marietta,GA,30068,
Savannah,GA,31405,
Martinez,GA,30907,
Peachtree City,GA,30269,
Oxford,GA,30054,
Albany,GA,31721,
Valdosta,GA,31602,
Atlanta,GA,30345,
Savannah,GA,31401,
Norcross,GA,30092,
Fayetteville,GA,30215,
Atlanta,GA,30327,
Tallulah Falls,GA,30573,
Marietta,GA,30064,
Sharpsburg,GA,30277,
Hahira,GA,31632,
Suwanee,GA,30024,
Kathleen,GA,31047,
Marietta,GA,30062,
Dexter,GA,31019,
Mabelton,GA,30126,
Winder,GA,30680,
Honolulu,HI,96817,
Laie,HI,96762-1294,
Aiea,HI,96701,
Honolulu,HI,96819,
Ewa Beach,HI,96706,
Makawao,HI,96768,
Honolulu,HI,96826,
Honolulu,HI,96818,
Pearl City,HI,96782,
Kapolei,HI,96707,
Makawao,HI,96768,
Honolulu,HI,96826,
Anamosa,IA,52205,
Ankeny,IA,50023,
Sioux City,IA,51109,
Atlantic,IA,50022,
Bellevue,IA,52031,
Belmond,IA,50421,
Mount Vernon,IA,52314,
Muscatine,IA,52761,
Anita,IA,50020,
Eldon,IA,52554,
Elkader,IA,52043,
Manly,IA,50456,
Clarion,IA,50525,
Tiffin,IA,52340,
Creston,IA,50801,
Cresco,IA,52136,
Danville,IA,52623,
Bloomfield,IA,52537,
Denison,IA,51442,
Robins,IA,52328,
Chelsea,IA,52215,
Winthrop,IA,50682,
Cedar Rapids,IA,52402,
Forest City,IA,50436,
Fort Dodge,IA,50501,
Garner,IA,50438,
Reinbeck,IA,50669,
Glenwood,IA,51534,
Graettinger,IA,51342,
Grinnell,IA,50112,
Humboldt,IA,50548,
Manilla,IA,51455,
Indianola,IA,50125,
Fort Dodge,IA,50501,
Marengo,IA,52301-1620,
Janesville,IA,50647,
Thompson,IA,50478,
Center Point,IA,52213,
Johnston,IA,50131,
Gruver,IA,51334,
Sioux City,IA,51105,
Williams,IA,50271,
Fremont,IA,52561,
Centerville,IA,52544,
Lawton,IA,51030,
Hull,IA,51239,
Lone Tree,IA,52755,
Wellman,IA,52356,
Indianola,IA,50125,
Monticello,IA,52310,
Mount Ayr,IA,50854,
Muscatine,IA,52761,
Nevada,IA,50201,
West Union,IA,52175,
Alleman,IA,50007,
Milford,IA,51351,
Waterloo,IA,50701,
Sigourney,IA,52591,
Eldora,IA,50627,
Tama,IA,52339,
Toledo,IA,52342,
Liberty Center,IA,50145,
Spirit Lake,IA,51360,
St. Ansgar,IA,50472,
Stanton,IA,51573,
Algona,IA,50511,
Keosauqua,IA,52565,
Forest City,IA,50436,
Waukon,IA,52172,
Waverly,IA,50677,
Mondamin,IA,51557,
Hawarden,IA,51023,
Williamsburg,IA,52361,
Woodward,IA,50276,
Idaho Falls,ID,83404,
Blackfoot,ID,83221,
Bonners Ferry,ID,83805,
Challis,ID,83226,
Grace,ID,83241,
Grangeville,ID,83530,
Homedale,ID,83628,
Wendell,ID,83355,
Twin Falls,ID,83301,
Twin Falls,ID,83301,
American Falls,ID,83211,
Idaho Falls,ID,83402,
Post Falls,ID,83854-5794,
Lewiston,ID,83501,
Eagle,ID,83616,
Fruitland,ID,83619,
Moscow,ID,83843,
Post Falls,ID,83854,
Blackfoot,ID,83221,
Mountain Home,ID,83647,
Eagle,ID,83616,
Abingdon,IL,61410,
Altamont,IL,62411,
Amboy,IL,61310,
Antioch,IL,60002,
Freeport,IL,61032,
Argenta,IL,62501,
Ashton,IL,61006,
Auburn,IL,62615,
Rock Island,IL,61201,
Deerfield,IL,60015,
Wilmington,IL,60481,
Red Bud,IL,62278,
Manlius,IL,61338,
Canton,IL,61520,
Casey,IL,62420,
Chicago,IL,60625,
Camp Point,IL,62320,
Chicago,IL,60625,
Chicago,IL,60612,
Christopher,IL,62822,
Grayslake,IL,60030-1198,
Collinsville,IL,62234,
Cowden,IL,62422,
Dakota,IL,61018,
Dunlap,IL,61525,
Browns,IL,62818,
Glen Ellyn,IL,60137,
Charleston,IL,61920,
Washington,IL,61571,
Durand,IL,61024,
East St. Louis,IL,62201,
Lanark,IL,61046,
Effingham,IL,62401,
Niles,IL,60714-3406,
Erie,IL,61250,
Freeburg,IL,62243-1599,
Mokena,IL,60448,
Northbrook,IL,60062,
Gibson City,IL,60936,
Aurora,IL,60502,
Spring Valley,IL,61362,
Harrisburg,IL,62946,
Havana,IL,62644,
Mundelein,IL,60060,
Chicago,IL,60625,
Chicago,IL,60616,
Chillicothe,IL,61523,
Jacksonville,IL,62650,
Mt. Zion,IL,62549,
St. Charles,IL,60175,
Clinton,IL,61727-2441,
Jacksonville,IL,62650,
Cicero,IL,60804,
Champaign,IL,61820,
Glenview,IL,60025,
East Dubuque,IL,61025,
Rockford,IL,61109,
Farmersville,IL,62533,
Edwardsville,IL,62025,
Knoxville,IL,61448,
Lake Forest,IL,60045,
LaMoille,IL,61330,
Centralia,IL,62801,
Romeoville,IL,60446,
Downs,IL,61736,
Jacksonville,IL,62650,
Park Ridge,IL,60068,
Park Ridge,IL,60068,
Hawthorn Woods,IL,60047,
Winnetka,IL,60093,
Chicago,IL,60690,
Mascoutah,IL,62258,
Macon,IL,62544,
Evanston,IL,60203,
Niles,IL,60714,
Monmouth,IL,61462,
Lombard,IL,60148,
Mt. Carmel,IL,62863,
Mt. Pulaski,IL,62548,
LaGrange Park,IL,60526,
Newark,IL,60541,
Newark,IL,60541,
Sterling,IL,61081,
Skokie,IL,60077,
Nokomis,IL,62075,
Louisville,IL,62858,
Virden,IL,62690,
Oak Lawn,IL,60453,
Orangeville,IL,61060,
Ottawa,IL,61350,
Pecatonica,IL,61063,
Plainfield,IL,60586,
Princeton,IL,61356,
Prophetstown,IL,61277,
Wilmette,IL,60091,
Riverton,IL,62561,
Chicago,IL,60608,
Champaign,IL,61822,
Rolling Meadows,IL,60008,
Roxana,IL,62084,
Salem,IL,62881,
Saint Charles,IL,60174,
Carmi,IL,62821,
Sterling,IL,61081,
Stillman Valley,IL,61084,
Rockford,IL,61114,
Chicago,IL,60657,
Elgin,IL,60124,
Louisville,IL,62858,
Troy,IL,62294,
LaGrange Park,IL,60526,
Monmouth,IL,61462,
Chicago,IL,60610,
Gurnee,IL,60031,
Waterloo,IL,62298,
Chicago,IL,60624,
Wheeling,IL,60090,
Omaha,IL,62871,
Williamsville,IL,62693,
Mulkeytown,IL,62865,
Scottsburg,IN,47170,
Batesville,IN,47006,
Yorktown,IN,47396,
Indianapolis,IN,46222,
Carmel,IN,46032,
Indianapolis,IN,46226,
Evansville,IN,47710,
Culver,IN,46511,
Daleville,IN,47334,
Noblesville,IN,46062,
Indianapolis,IN,46235,
Loaded,IN,,
Richmond,IN,47374-5653,
Rolling Prairie,IN,46371,
Valparaiso,IN,46385,
Royal Center,IN,46978,
Ft. Branch,IN,47648,
Greencastle,IN,46135,
Jasper,IN,47546,
Lafayette,IN,47905,
Fort Wayne,IN,46835,
Alexandria,IN,46001,
Indianapolis,IN,46219,
Indianapolis,IN,46256,
Anderson,IN,46012,
Vincennes,IN,47591,
Linton,IN,47441,
Loogootee,IN,47553,
Plymouth,IN,46563,
Seymour,IN,47274,
Schererville,IN,46375,
Indianapolis,IN,46208,
Monrovia,IN,46157,
Osceola,IN,46561,
Indianapolis,IN,46240,
Nappanee,IN,46550,
Fort Wayne,IN,46825,
Oldenburg,IN,47036,
Princeton,IN,47670-8321,
West Lafayette,IN,47907,
Wolcottville,IN,46795,
Noblesville,IN,46060,
Lizton,IN,46149,
Fairland,IN,46126,
Evansville,IN,47722,
Gaston,IN,47342,
Fort Wayne,IN,46818,
Elkhart,IN,46517,
Oakland City,IN,47660,
Iola,KS,66749,
Ashland,KS,67831,
Atchison,KS,66002,
Wichita,KS,67212,
Leon,KS,67074,
Lenexa,KS,66215,
Stilwell,KS,66085,
Olathe,KS,66061,
Bucklin,KS,67834,
Maize,KS,67101,
Lenexa,KS,66215,
Eudora,KS,66025,
Fowler,KS,67844,
Holton,KS,66436,
Iola,KS,66749,
Holton,KS,66436,
Topeka,KS,66610,
Kansas City,KS,66112,
Olathe,KS,66062,
Greensburg,KS,67054,
Garden City,KS,67846,
Minneola,KS,67865,
Manhattan,KS,66502,
Overland Park,KS,66062,
Phillipsburg,KS,67661,
Riverton,KS,66770,
Linn,KS,66953,
Shawnee,KS,66217,
Lawrence,KS,66047,
Topeka,KS,66617,
Spearville,KS,67876,
Wichita,KS,67206,
Ulysses,KS,67880,
Williamsburg,KY,40769,
Lexington,KY,40504,
Berea,KY,40403,
Carrollton,KY,41008,
Crittendon,KY,41030-8563,
Eminence,KY,40019,
Bowling Green,KY,42104,
Cynthiana,KY,41031,
Somerset,KY,42503,
Wilder,KY,41076,
Hardinsburg,KY,40143,
Louisville,KY,40241,
Frankfort,KY,40601,
Lexington,KY,40503,
Ashland,KY,41101,
Louisville,KY,40242,
Frankfort,KY,40601,
Paducah,KY,42001,
Scottsville,KY,42164,
Taylorsville,KY,40071,
Fort Campbell,KY,42223,
Bowling Green,KY,42101,
Bardstown,KY,40004,
Mount Sterling,KY,40353,
Williamsburg,KY,40769,
Bowling Green,KY,42101,
Monticello,KY,42633,
Nicholasville,KY,40356,
Bowling Green,KY,42101,
Williamsburg,KY,40769,
River Ridge,LA,70123,
Lafayette,LA,70508,
Youngsville,LA,70592,
Berwick,LA,70339,
New Orleans,LA,70128,
Pearl River,LA,70452,
Baton Rouge,LA,70817,
Pearl River,LA,70452,
Crowley,LA,70526,
New Orleans,LA,70122,
Gonzales,LA,70737,
Baton Rouge,LA,70816,
Mandeville,LA,70471,
Breaux Bridge,LA,70517,
New Iberia,LA,70563,
Iota,LA,70543,
Keithville,LA,71047,
Belle Chasse,LA,70037,
Kenner,LA,70065,
Baton Rouge,LA,70817,
Lafayette,LA,70508,
Mandeville,LA,70448,
Baton Rouge,LA,70808,
Baton Rouge,LA,70803,
Youngsville,LA,70592,
Breaux Bridge,LA,70517,
Morgan City,LA,70380,
Maurice,LA,70555,
Crowley,LA,70526,
New Orleans,LA,70115,
Franklinton,LA,70438,
Cut Off,LA,70345,
Rayne,LA,70578,
Lake Charles,LA,70605,
New Orleans,LA,70128,
Slidell,LA,70458,
Lafayette,LA,70508,
Plaquemine,LA,70764,
Sulphur,LA,70663,
Youngsville,LA,70592,
New Orleans,LA,70124,
Baton Rouge,LA,70817,
Dalton,MA,1226,
Charlton,MA,1507,
Attleboro,MA,2703,
Stoneham,MA,2180,
Boston,MA,02130-2442,
New Bedford,MA,2745,
Plymouth,MA,2360,
Andover,MA,1810,
Sudbury,MA,1776,
Boston,MA,2108,
Sutton,MA,1590,
Framingham,MA,1702,
Bridgewater,MA,2324,
New Bedford,MA,2740,
Marlborough,MA,1752,
Wilbraham,MA,1095,
Andover,MA,1810,
Sudbury,MA,1776,
Weston,MA,2493,
Rockland,MA,2370,
Taunton,MA,2780,
Braintree,MA,2184,
Boston,MA,2125,
Worcester,MA,1602,
Worcester,MA,1609,
Landmark,MB,R0A 0X0,
Winnipeg,MB,R2V 3K8,
Winnipeg,MB,R3J 1K3,
Baltimore,MD,21218,
Baltimore,MD,21211,
California,MD,20619,
Severn,MD,21144,
Aberdeen Proving Ground,MD,21005,
Reisterstown,MD,21136,
Clear Spring,MD,21722,
Baltimore,MD,21216,
Clarksville,MD,21029,
Hagerstown,MD,21742,
Accokeek,MD,20607,
Upper Marlboro,MD,20772,
Genelg,MD,21737,
Easton,MD,21601,
Greenbelt,MD,20770,
Cumberland,MD,21502,
Union Bridge,MD,21791,
Arnold,MD,21012,
Laurel,MD,20707,
Fredrick,MD,21702,
Upper Marlboro,MD,20772,
Great Mills,MD,20634,
Catonsville,MD,21228,
Ellicott City,MD,21042,
Pasadena,MD,21122,
Owings,MD,20736,
Oxon Hill,MD,20745,
Lusby,MD,20657,
Prince Frederick,MD,20678,
Poolesville,MD,20837,
Woodstock,MD,21163,
Upper Marlboro,MD,20774,
Elkridge,MD,21075,
Silver Spring,MD,20906,
Oakland,MD,21550,
Bethseda,MD,20817,
Ijamsville,MD,21754,
Potomac,MD,20854,
Lewiston,ME,4240,
Scarborough,ME,4074,
Houlton,ME,4730,
Biddeford,ME,4005,
Sterling Heights,MI,48313,
Dearborn,MI,48126,
Allen Park,MI,48101,
Clarkston,MI,48348,
Bad Axe,MI,48413-9714,
Battle Creek,MI,49017,
Holland,MI,49423,
Bridgman,MI,49106,
Brighton,MI,48116,
Britton,MI,49229,
Huntington Woods,MI,48070,
Gibraltar,MI,48173,
Grand Rapids,MI,49546,
Cedar Springs,MI,49319,
Central Lake,MI,49622,
Holly,MI,48442,
Charlevoix,MI,49720,
Charlotte,MI,48813,
Milford,MI,48380,
Spring Lake,MI,49456,
Clio,MI,48420,
Coopersville,MI,49404,
Belding,MI,48809,
Novi,MI,48374,
Ada,MI,49301,
Davison,MI,48423,
Fenton,MI,48430,
Gladstone,MI,49837,
Grand Haven,MI,49417,
Grand Rapids,MI,49503,
Grand Rapids,MI,49504,
Harbor Springs,MI,49740,
Saginaw,MI,48603,
Muskegon,MI,49444,
Plymouth,MI,48170,
Grosse Ile,MI,48138,
Coldwater,MI,49036,
Niles,MI,49120,
Mattawan,MI,49071,
White Lake,MI,48383,
Stevensville,MI,49127,
St. Clair Shores,MI,48081,
Lakeview,MI,48850,
Lansing,MI,48912,
Lansing,MI,48911,
Manistique,MI,49854,
Michigan Center,MI,49254,
East Lansing,MI,48824,
Midland,MI,48642,
Mount Morris,MI,48458,
Newaygo,MI,49337,
Grand Rapids,MI,49525,
Jackson,MI,49201,
Norway,MI,49870,
Perry,MI,48872,
Pinconning,MI,48650,
Buchanan,MI,49107,
Shelby,MI,49455,
Grand Haven,MI,49417,
Birmingham,MI,48009,
Dearborn,MI,48128,
Warren,MI,48088,
Webberville,MI,48892,
Auburn,MI,48611,
White Cloud,MI,49349,
Brownstown,MI,48134,
Aitkin,MN,56431,
Chaplin,MN,55316,
Bagley,MN,56621,
Barnum,MN,55707,
Bemidji,MN,56601-2903,
Hugo,MN,55038,
Browerville,MN,56438,
Caledonia,MN,55921,
Canby,MN,56220,
Chaska,MN,55318,
Crosby,MN,56441,
Dawson,MN,56232,
Duluth,MN,55804,
Duluth,MN,55804,
Finlayson,MN,55735,
Waseca,MN,56093,
Howard Lake,MN,55349,
Fergus Falls,MN,56537,
Harmony,MN,55939,
Floodwood,MN,55736,
Bemidji,MN,56601,
Grand Meadow,MN,55936,
Grand Rapids,MN,55744,
Lake Elmo,MN,55042,
Hinckley,MN,55037,
Janesville,MN,56048,
Lakefield,MN,56150,
Bloomington,MN,55437,
Oklee,MN,56742,
Jordan,MN,55352,
Wanamingo,MN,55983,
Kerkhoven,MN,56252,
Blackduck,MN,56630,
Madison,MN,56256,
Baudette,MN,56623,
Lanesboro,MN,55949,
Dodge Center,MN,55927,
Brownsdale,MN,55918,
Lester Prairie,MN,55354,
Lake City,MN,55041,
Litchfield,MN,55355,
Little Falls,MN,56345,
Altura,MN,55910,
Long Prairie,MN,56347,
Saint Paul,MN,55105,
Clara City,MN,56222,
Rochester,MN,55904,
Apple Valley,MN,55124,
Milaca,MN,56353,
Excelsior,MN,55331,
Morris,MN,56267,
Minnetrista,MN,55364,
North Branch,MN,55056,
Osakis,MN,56360,
Paynesville,MN,56362,
Perham,MN,56573,
Mankato,MN,56001,
Pillager,MN,56473,
Pine River,MN,56474,
Brooklyn Park,MN,55443,
Maple Grove,MN,55311,
Roseau,MN,56751,
Rothsay,MN,56579,
Rushford,MN,55971,
Eden Prairie,MN,55344,
Coon Rapids,MN,55433,
Woodbury,MN,55129,
Rochester,MN,55906,
St. Paul,MN,55105,
St. Michael,MN,55376,
Staples,MN,56479,
Chanhassen,MN,55317,
Minneapolis,MN,55411,
Hinckley,MN,55037,
Tracy,MN,56175,
Renville,MN,56284,
Ulen,MN,56585,
Wabasha,MN,55981-1783,
Wadena,MN,56482,
Warroad,MN,56763,
Granite Falls,MN,56241,
Zumbrota,MN,55992,
Clever,MO,65631,
Adrian,MO,64720,
Aurora,MO,65605,
St. Joseph,MO,64504,
Bowling Green,MO,63334,
Branson,MO,65616,
Chesterfield,MO,63017,
Cape Girardeau,MO,63701,
Cape Girardeau,MO,63703,
Fenton,MO,63026,
DeSoto,MO,63020,
Dexter,MO,63841,
St. Louis,MO,63122,
Excelsior Springs,MO,64024,
Arnold,MO,63010,
Saint Charles,MO,63303,
Ozark,MO,65721,
Grain Valley,MO,64029,
St. Louis,MO,63103-1422,
Wentzville,MO,63385,
Harrisonville,MO,64701,
Columbia,MO,65203,
Kansas City,MO,64154,
Hillsboro,MO,63050,
Hollister,MO,65672,
Houston,MO,65483,
Lees Summit,MO,64081,
Jackson,MO,63755,
Garden City,MO,64747,
Maryland Heights,MO,63043,
Saint Charles,MO,63304,
Birch Tree,MO,65438,
Parkville,MO,64152,
St. Louis,MO,63146,
Lamar,MO,64759,
Lesterville,MO,63654,
Lake St. Louis,MO,63367,
St. Louis,MO,63122,
Lone Jack,MO,64070,
Saint Peters,MO,63376,
Malden,MO,63863,
St. Louis,MO,63143,
Patton,MO,63662,
West Plains,MO,65775,
Versailles,MO,65084,
Mountain Grove,MO,65711,
Mt. Vernon,MO,65712,
Nixa,MO,65714,
Jefferson City,MO,65109,
Columbia,MO,65202,
St. Peters,MO,63376,
Perryville,MO,63775,
Poplar Bluff,MO,63901,
St. Louis,MO,63114,
Columbia,MO,65203,
Rock Port,MO,64482,
St. Louis,MO,63125,
St. Louis,MO,63103,
Wentzville,MO,63385,
Arcadia,MO,63621,
Sedalia,MO,65301,
Ashland,MO,65010,
St. Louis,MO,63103,
Kansas City,MO,64156,
St. Louis,MO,63128,
Kansas City,MO,64114,
St. Louis,MO,63131,
Webster Groves,MO,63119,
Warrensburg,MO,64093,
Columbia,MO,65211,
Warrensburg,MO,64093,
St. Louis,MO,63130,
Joplin,MO,64804,
Kansas City,MO,64119,
St. Louis,MO,63141,
Bay St. Louis,MS,39520,
Belmont,MS,38827,
Nesbit,MS,38651,
Ridgeland,MS,39157,
Gulfport,MS,39507,
Kiln,MS,39556,
Jackson,MS,39204,
D'lberville,MS,39540,
Long Beach,MS,39560,
Mississippi State,MS,39762,
Bay Saint Louis,MS,39520,
Pascagoula,MS,39567,
Petal,MS,39465,
Pontotoc,MS,38863,
Hattiesburg,MS,39401,
Olive Branch,MS,38654,
Ridgeland,MS,39157,
University,MS,38677,
Billings,MT,59102,
Browning,MT,59417,
Townsend,MT,59644,
Helena,MT,59625,
Livingston,MT,59047,
Miles City,MT,59301,
Hamilton,MT,59840,
Darby,MT,59829,
Missoula,MT,59808,
Glendive,MT,59330,
Kalispell,MT,59901,
Kalispell,MT,59901,
Glasgow,MT,59230,
Hardin,MT,59034,
Boulder,MT,59632,
Bozeman,MT,59715,
Box Elder,MT,59521,
Whitefish,MT,59937,
Plaster Rock,NB,E7G 4G9,
Charlotte,NC,28269,
Raleigh,NC,27614,
Goldsboro,NC,27530,
Asheville,NC,28801,
Mooresville,NC,28117,
Boone,NC,28608,
West Jefferson,NC,28694,
Newland,NC,28657,
Mills River,NC,28759,
Cashiers,NC,28717,
Brevard,NC,28712,
Salisbury,NC,28147,
Concord,NC,28027,
Hillsborough,NC,27278,
Winston Salem,NC,27101,
Winston-Salem,NC,27106,
Cherokee,NC,28719,
Charlotte,NC,28270,
Davidson,NC,28036,
Davidson,NC,28036,
Cornelius,NC,28031,
Holly Ridge,NC,28445,
Charlotte,NC,28210,
East Bend,NC,27018,
Newton,NC,28658,
Garner,NC,27529,
Henderson,NC,27536,
Monroe,NC,28110,
Mooresville,NC,28117,
High Point,NC,27262,
Matthews,NC,28105,
Benson,NC,27504,
Semora,NC,27343,
Concord,NC,28027,
Cary,NC,27519,
Greensboro,NC,27408,
Greeensboro,NC,27410,
Charlotte,NC,28262,
Benson,NC,27504,
Winston Salem,NC,27103,
Charlotte,NC,28277,
Morganton,NC,28655,
Fuquay Varina,NC,27526,
Sanford,NC,27330,
Chapel Hill,NC,27516,
Mooresboro,NC,28114,
Newton Grove,NC,28366,
Mount Airy,NC,27030,
Winston Salem,NC,27106,
Mount Holly,NC,28120,
Greensboro,NC,27410,
Huntersville,NC,28078,
Greensboro,NC,27403,
Wilmington,NC,28403,
Huntersville,NC,28078,
Gastonia,NC,28056,
Burlington,NC,27215,
Wilkesboro,NC,28697,
Winterville,NC,28590,
Marvin,NC,28173,
Morrisville,NC,27560,
Greenville,NC,27834,
Charlotte,NC,28223,
Chapel Hill,NC,27515,
Fayetteville,NC,28303,
Lexington,NC,27295,
Boone,NC,28607,
Hillsborough,NC,27278,
Dickinson,ND,58601,
Minot,ND,58703,
Fargo,ND,58104,
Fargo,ND,58104,
Pembina,ND,58271,
Bismarck,ND,58501,
Dickinson,ND,58601,
Enderlin,ND,58027,
Fargo,ND,58104,
Strasburg,ND,58573,
Minot,ND,58701,
Rolla,ND,58367-7178,
Carrington,ND,58421,
Fargo,ND,58105,
Gwinner,ND,58040,
Hunter,ND,58048,
Minot,ND,58701,
Grand Forks,ND,58201,
Grand Forks,ND,58201,
West Fargo,ND,58078-7926,
Jamestown,ND,58401,
Watford City,ND,58854,
Pembina,ND,58271,
West Fargo,ND,58078,
Wyndmere,ND,58081,
Superior,NE,68978,
Battle Creek,NE,68715,
Omaha,NE,68135,
Blue Hill,NE,68930,
Chambers,NE,68725,
Omaha,NE,68136,
Albion,NE,68620,
Creighton,NE,68729,
Omaha,NE,68178,
Omaha,NE,68154,
Gretna,NE,68028,
Geneva,NE,68361,
Gering,NE,69341,
Hay Springs,NE,69347,
Henderson,NE,68371,
Holdrege,NE,68949,
David City,NE,68632,
Norfolk,NE,68701,
South Sioux City,NE,68776,
Elkhorn,NE,68022,
Fairfield,NE,68938,
Lincoln,NE,68522,
Hooper,NE,68031,
Loup City,NE,68853,
Maxwell,NE,69151,
McCook,NE,69001,
Nebraska City,NE,68410,
Omaha,NE,68138,
Lincoln,NE,68504,
North Platte,NE,69101,
Oakland,NE,68045,
Ogallala,NE,69153,
Omaha,NE,68102,
Omaha,NE,68107-1894,
Springfield,NE,68059,
Gothenburg,NE,69138,
Spalding,NE,68665,
Pleasanton,NE,68866,
Grand Island,NE,68801,
Seward,NE,68434,
Shickley,NE,68436,
Bartley,NE,69020,
Sumner,NE,68878,
Omaha,NE,68138-6603,
Bennington,NE,68007,
Genoa,NE,68640,
Wauneta,NE,69045,
West Point,NE,68788,
Wood River,NE,68883-0518,
York,NE,68467,
Portsmouth,NH,3801,
Manchester,NH,3102,
Milford,NH,3055,
Meredith,NH,3253,
Nashua,NH,3060,
Fairfield,NJ,7004,
Sicklerville,NJ,8081,
Metuchen,NJ,8840,
Flemington,NJ,8822,
Westampton,NJ,8060,
Hillsborough,NJ,8844,
Collingswood,NJ,8108,
Cranford,NJ,7016,
Livingston,NJ,7039,
Old Bridge,NJ,8857,
Bloomfield,NJ,7003,
East Brunswick,NJ,8816,
Monroe Township,NJ,8831,
Wayne,NJ,07470-6734,
Newark,NJ,7107,
Plainfield,NJ,7062,
Sewell,NJ,8080,
Princeton,NJ,8543,
Leonia,NJ,7605,
Asbury,NJ,8802,
Franklin Lakes,NJ,7417,
Colonia,NJ,07067-1114,
Montclair,NJ,7042,
Allendale,NJ,7401,
Denville,NJ,7834,
Mahwah,NJ,7430,
Newark,NJ,7105,
Oradell,NJ,7649,
Toms River,NJ,8753,
Hillsborough,NJ,8844,
Southampton,NJ,8088,
West Paterson,NJ,7424,
West Orange,NJ,7052,
Medford,NJ,8055,
Shorts Hills,NJ,7078,
Edison,NJ,8837,
Old Bridge,NJ,8857,
Summit,NJ,7902,
Wayne,NJ,7470,
West Orange,NJ,7052,
Alamagordo,NM,88310,
Sante Fe,NM,87506,
Carlsbad,NM,88220,
Clayton,NM,88415,
Farmington,NM,87401,
Artesia,NM,88210,
Anthony,NM,88021,
Sante Fe,NM,87505,
Roswell,NM,88201,
Rio Rancho,NM,87124,
Artesia,NM,88210,
Mesquite,NM,88048,
Albuquerque,NM,87107,
Roswell,NM,88201,
Albuquerque,NM,87105,
Las Cruces,NM,88011-4278,
Los Alamos,NM,87544,
Albuquerque,NM,87105,
Clovis,NM,88101-4636,
Logan,NM,88426,
Santa Fe,NM,87505,
Farmington,NM,87401,
Rio Rancho,NM,87144,
Albuquerque,NM,87114,
Texico,NM,88135,
Las Vegas,NV,89131,
Las Vegas,NV,89148,
Las Vegas,NV,89109,
Las Vegas,NV,89102,
Henderson,NV,89011,
Reno,NV,89511,
Las Vegas,NV,89129,
Reno,NV,89511,
Henderson,NV,89014,
Sparks,NV,89436,
Las Vegas,NV,89123,
Reno,NV,89512,
Ely,NV,89301,
N Las Vegas,NV,89129,
Spring Creek,NV,89815,
Las Vegas,NV,89109,
Henderson,NV,89052,
Las Vegas,NV,89139,
Henderson,NV,89012,
Henderson,NV,89074,
Las Vegas,NV,89128,
Las Vegas,NV,89119,
Las Vegas,NV,89117,
Fernely,NV,89408,
Las Vegas,NV,89120,
Henderson,NV,89002,
Yerington,NV,89447,
Las Vegas,NV,89154,
Las Vegas,NV,89123,
Port Washington,NY,11050,
New York,NY,10011,
Amsterdam,NY,12010,
Rochester,NY,14612,
New York,NY,10036,
Rochester,NY,14612,
Scarsdale,NY,10583,
Sparrowbush,NY,12780,
New York,NY,10007,
Elmira,NY,14901,
Hudson,NY,12534,
Broadalbin,NY,12025,
Canandaigua,NY,14424,
Centereach,NY,11720,
Potsdam,NY,13699,
West Nyack,NY,10994,
Richmondville,NY,12149,
Bohemia,NY,11716,
Peekskill,NY,10566,
Melville,NY,11747,
St. James,NY,11780,
New Hyde Park,NY,11040,
Goshen,NY,10924,
Whitestone,NY,11357,
Harrison,NY,10528,
New York,NY,10128,
Altamont,NY,12009,
Manorville,NY,11949,
Fairport,NY,14450,
Baldwinsville,NY,13027,
Geneseo,NY,14454,
Gowanda,NY,14070,
Hudson,NY,12534,
Valley Stream,NY,11581,
Waterford,NY,12188,
Glen Spey,NY,12737,
New York,NY,10016,
Cross River,NY,10518,
Port Washington,NY,11050,
Port Washington,NY,11050,
Massapequa,NY,11758,
Niskayuna,NY,12309,
Bohemia,NY,11716,
Union Springs,NY,13160,
Baldwinsville,NY,13027,
Bronx,NY,10465,
Staten Island,NY,10314,
New Windsor,NY,12553-3901,
Elmsford,NY,10523,
Millbrook,NY,12545,
Schenectady,NY,12303,
Central Valley,NY,10917,
New Rochelle,NY,10801,
Poughkeepsie,NY,12603,
West Seneca,NY,14224,
North Collins,NY,14111,
Upper Nyack,NY,10960,
Pleasantville,NY,10570,
Brooklyn,NY,11228,
Rome,NY,13440,
Staten Island,NY,10306,
New Rochelle,NY,10801,
Scarsdale,NY,10583,
Schoharie,NY,12157,
Bronx,NY,10473,
Jamestown,NY,14701,
Spencerport,NY,14559,
Brooklyn,NY,11201,
Lockport,NY,14094,
Madison,NY,13402,
Seaford,NY,11783,
Fayetteville,NY,13066,
Hudson Falls,NY,12839,
Utica,NY,13502,
Syracuse,NY,13244,
Orangeburg,NY,10962,
Valley Stream,NY,11581,
Stony Brook,NY,11790,
East Elmhurst,NY,11370,
Middleburgh,NY,12122,
Tioga Center,NY,13845,
Union Springs,NY,13160,
West Point,NY,10996,
Albany,NY,12222,
Valhalla,NY,10595,
Wallkill,NY,12589,
Valhalla,NY,10595,
Williamsville,NY,14221,
Yorktown Heights,NY,10598,
Lewis Center,OH,43035,
Columbus,OH,43206,
Amherst,OH,44001,
Cincinnati,OH,45255,
Avon Lake,OH,44012,
Lisbon,OH,44432,
Bellefontaine,OH,43311,
Milford,OH,45150,
Bradford,OH,45308,
Waynesfield,OH,45896,
Carlisle,OH,45005,
Centerville,OH,45459,
Chillicothe,OH,45601,
Mentor,OH,44060,
Fort Recovery,OH,45846,
Delphos,OH,45833,
Elyria,OH,44035,
Dublin,OH,43017,
Howard,OH,43028,
Eaton,OH,45320,
Milan,OH,44846,
Cincinnati,OH,45205-1699,
Proctorville,OH,45669,
Fayette,OH,43621,
Fort Recovery,OH,45846,
Huron,OH,44839,
Grove City,OH,43123,
Groveport,OH,43125,
Marengo,OH,43334,
Art of Coaching -,OH,,
Barberton,OH,44203,
Fredericktown,OH,43019,
Delphos,OH,45833,
Minerva,OH,44657,
Genoa,OH,43430,
Kenton,OH,43326,
Bellville,OH,44813,
Cincinnati,OH,45241,
Swanton,OH,43558,
Uniontown,OH,44685,
Perrysburg,OH,43551,
Wadsworth,OH,44281,
Maumee,OH,43537,
Gates Mills,OH,44040,
Perrysburg,OH,43551,
Powell,OH,43065,
Monroeville,OH,44847,
Norwalk,OH,44857,
Burbank,OH,44214,
Chardon,OH,44024,
Cleveland,OH,44121-4293,
Portsmouth,OH,45662,
Old Fort,OH,44861,
Lewis Center,OH,43035,
Cincinnati,OH,45212,
Richfield,OH,44286,
Warsaw,OH,43844,
Hamilton,OH,45013,
Toledo,OH,43606,
Salem,OH,44460,
Salem,OH,44460,
Sandusky,OH,44870,
Uniontown,OH,44685,
Pataskala,OH,43062,
Springfield,OH,45502,
Sylvania,OH,43560,
Springboro,OH,45066,
Uhrichsville,OH,44683,
Toledo,OH,43606,
Campbell,OH,44405,
Dayton,OH,45414,
Maumee,OH,43537,
Wadsworth,OH,44281,
Hanoverton,OH,44423,
McGuffey,OH,45859,
Willoughby,OH,44094,
Mt. Gilead,OH,43338,
Wadsworth,OH,44281,
Wapakoneta,OH,45895-9375,
Cincinnati,OH,45030,
Galloway,OH,43119,
Cleveland,OH,44113,
Hinckley,OH,44233,
Clayton,OH,75315,
Washington Court House,OH,43160,
Amber,OK,73004,
Tulsa,OK,74137,
Tulsa,OK,74136,
Muskogee,OK,74401,
Yukon,OK,73099,
Broken Arrow,OK,74012,
Tulsa,OK,74134,
Muskogee,OK,74403,
Tulsa,OK,74133,
Oklahoma City,OK,73134,
Oklahoma City,OK,73131,
Duncan,OK,73534,
Ada,OK,74820,
Edmond,OK,73013,
El Reno,OK,73036,
Tulsa,OK,74107,
Lawton,OK,73507,
Edmond,OK,73013,
Enid,OK,73701,
Oklahoma City,OK,73151,
Jenks,OK,74037,
Mustang,OK,73064-9593,
Edmond,OK,73025,
Locust Grove,OK,74352,
Ponca City,OK,74601,
Tulsa,OK,74137,
Oklahoma City,OK,73109,
Mustang,OK,73064,
Edmond,OK,73034,
Norman,OK,73069,
Goodwell,OK,73939,
Owasso,OK,74055,
Bartlesville,OK,74006,
Broken Arrow,OK,74011,
Seminole,OK,74868,
Oklahoma City,OK,73121,
Tulsa,OK,74133,
Edmond,OK,73034,
McAlester,OK,74501,
Tulsa,OK,74104,
Toronto,ON,M3H 1K3,
Toronto,ON,M2L 1C8,
Burlington,ON,L7M 0R1,
Hanmer,ON,P3P 1X5,
Waterloo,ON,N2L 3G1,
Eugene,OR,97408,
Portland,OR,97232,
Portland,OR,97203,
Albany,OR,97321,
Corvalis,OR,97330,
LaGrande,OR,97850,
Eagle Point,OR,97524,
Sherwood,OR,97140,
Falls City,OR,97344,
Happy Valley,OR,97086,
Salem,OR,97317,
Klamath Falls,OR,97603,
Heppner,OR,97836,
Hermiston,OR,97838,
Portland,OR,97223,
Astoria,OR,97103,
Myrtle Creek,OR,97457,
Tualatin,OR,97062,
Bend,OR,97702,
Ontario,OR,97914,
Lakeview,OR,97630,
Medford,OR,97501,
Albany,OR,97321,
Klamath Falls,OR,97603,
Corvallis,OR,97331,
Reedsport,OR,97467,
Lebanon,OR,97355,
West Linn,OR,97068,
Medford,OR,97504,
Sherwood,OR,97140,
Portland,OR,97225,
Pendleton,OR,97801,
King of Prussia,PA,19406,
Hanover Township,PA,18706,
Bradford,PA,16701,
Honey Brook,PA,19344,
Pittsburgh,PA,15241,
Carlisle,PA,17013,
Bridgeville,PA,15017,
Clymer,PA,15728,
Berwyn,PA,19312,
Lancaster,PA,17602,
Linesville,PA,16424,
Milford,PA,18337,
Burgettstown,PA,15021,
Dover,PA,17315,
Pittsburgh,PA,15219,
Edinboro,PA,16444,
Ephrata,PA,17522,
Coatesville,PA,19320,
Murrysville,PA,15668,
Monroeville,PA,15146,
Gettysburg,PA,17325,
Coatsville,PA,19320,
Haverford,PA,19041,
Morton,PA,19070,
Kunkletown,PA,18058,
York Haven,PA,17370,
Doylestown,PA,18902,
Eagleville,PA,19403,
Gladwyne,PA,19035,
Spring Creek,PA,16436,
Annville,PA,17003,
Fleetwood,PA,19522,
Broomall,PA,19008,
Emmaus,PA,18049,
Stoneboro,PA,16153,
Wyndmoor,PA,19038,
Sharpsville,PA,16150,
North East,PA,16428,
Radnor,PA,19087,
Lancaster,PA,17601,
New Castle,PA,16105,
Lansdale,PA,19446-4798,
Glen Mills,PA,19342,
University Park,PA,16802-5701,
Glen Mills,PA,19342,
Emsworth,PA,15202,
Brodheadsville,PA,18322,
Quakertown,PA,18951,
Reading,PA,19604-2451,
Lewisberry,PA,17339,
Uniontown,PA,15401,
Moon Township,PA,15108,
Dauphin,PA,17018,
Hellertown,PA,18055,
New Hope,PA,18938,
Indiana,PA,15701,
Philipsburg,PA,16866,
Carlisle,PA,17013,
Berwyn,PA,19312,
Mechanicsburg,PA,17055,
Rimersburg,PA,16248,
Collegeville,PA,19426-1000,
Rio Piedras,PR,927,
San Juan,PR,920,
San Juan,PR,926,
San Juan,PR,926,
Sayadec,QC,G0J 3K0,
Montreal,QC,H1X 1K7,
Wakefield,RI,2878,
Lincoln,RI,2865,
Johnston,RI,2919,
Woonsocket,RI,2895,
Kershaw,SC,29067,
Buford,SC,29907,
Bluffton,SC,29910,
Greenville,SC,29609,
Rock Hill,SC,29732,
Greer,SC,29650,
Taylors,SC,29687,
Greenville,SC,29607,
Conway,SC,29526,
Salseiros,SC,88317-100,
Conway,SC,29526,
Columbia,SC,29206,
Roebuck,SC,29376,
Taylors,SC,29687,
Lexington,SC,29072,
Fort Mill,SC,29715,
Anderson,SC,29626,
Anderson,SC,29621,
Columbia,SC,29201,
Simpsonville,SC,29681,
Hilton Head,SC,29926,
Hiltonhead,SC,29928,
West Columbia,SC,29169,
North Agusta,SC,29860,
Charleston,SC,29412,
West Columbia,SC,29169,
Lexington,SC,29072,
Ridgeland,SC,29936,
Lexington,SC,29072,
Inman,SC,29349,
Anderson,SC,29621,
Kershaw,SC,29067,
Clemson,SC,29631,
North Augusta,SC,29841,
Kershaw,SC,29067,
Lexington,SC,29072,
Columbia,SC,29229,
Clinton,SC,29325,
Columbia,SC,29223,
Lexington,SC,29072,
Rock Hill,SC,29730,
Easley,SC,29642,
Rock Hill,SC,29730,
Simpsonville,SC,29681,
Goose Creek,SC,29445,
Greenville,SC,29615,
Columbia,SC,29208,
Westminster,SC,29693,
Lexington,SC,29073,
Rock Hill,SC,29732,
Brandon,SD,57005,
Burke,SD,57523,
Custer,SD,57730,
Hot Springs,SD,57747,
Elk Point,SD,57025,
Freeman,SD,57029,
Harrisburg,SD,57032,
Hot Springs,SD,57747,
Ipswich,SD,57451,
Deadwood,SD,57732,
Sturgis,SD,57785,
Pierre,SD,57501,
Canistota,SD,57012,
Selby,SD,57472,
Freeman,SD,57029,
Yankton,SD,57078,
Regina,SK,S4S 4A7,
Regina,SK,S4S 4E6,
Bartlett,TN,38134,
Chattanooga,TN,37405,
Nashville,TN,37212,
Pikeville,TN,37367,
Chattanooga,TN,37411,
Eads,TN,38028-7024,
Columbia,TN,38401,
Camden,TN,38320,
Jacksboro,TN,37757,
Franklin,TN,37067,
Clarksville,TN,37043,
Thompsons Station,TN,37179,
Dickson,TN,37055,
Chattanooga,TN,37421,
Lenoir City,TN,37771,
Lawrenceburg,TN,38464-2255,
Greenbrier,TN,37073,
Nashville,TN,37215,
Germantown,TN,38139,
Memphis,TN,38116,
Bells,TN,38006,
Nashville,TN,37205,
Shelbyville,TN,37160,
Collierville,TN,38017,
Jackson,TN,38305-6654,
Franklin,TN,37069,
Knoxville,TN,37919,
Memphis,TN,38120-3298,
Lebanon,TN,37087,
Chattanooga,TN,37419,
Bartlett,TN,38133,
McEwen,TN,37101,
Nashville,TN,37214,
Nashville,TN,37221,
Portland,TN,37148,
Cookeville,TN,38506,
Kingsport,TN,37660,
Fayettville,TN,37334,
Murfreesboro,TN,37129,
Columbia,TN,38401,
Columbia,TN,38401,
Spring Hill,TN,37174,
Spring Hill,TN,37174,
Nashville,TN,37209-1561,
Franklin,TN,37069,
Jackson,TN,38305,
Lafayette,TN,37083,
Nashville,TN,37211,
Knoxville,TN,37916,
Waverly,TN,37185,
Clarksville,TN,37042,
White House,TN,37188,
White House,TN,37188,
White Bluff,TN,37187,
Duncanville,TX,75137,
Abilene,TX,79603,
Little River Academy,TX,76554,
San Antonio,TX,78217,
El Paso,TX,79938,
Spring,TX,77380,
Aledo,TX,76008,
McAllen,TX,78504,
Midland,TX,79707,
Laredo,TX,78045,
Dallas,TX,75254-8116,
Alice,TX,78332,
Allen,TX,75002,
Alpine,TX,79830,
Alvarado,TX,76009,
Alvine,TX,77511,
Amarillo,TX,79106,
Midlothian,TX,76065,
Bluff Dale,TX,76433,
Andrews,TX,79714,
Fort Worth,TX,76109,
San Angelo,TX,76909,
Austin,TX,78704,
Anthony,TX,79821,
Midland,TX,79707,
San Diego,TX,78384,
Los Fresnos,TX,78566,
Arp,TX,75750,
Creek Dive League,TX,77573,
Avery,TX,75554,
Houston,TX,77055,
Bandera,TX,78003,
Banquete,TX,78339,
Waco,TX,76706,
Bells,TX,75414,
Cedar Park,TX,78613,
Richardson,TX,75081,
Fort Worth,TX,76137,
Big Spring,TX,79720,
Frisco,TX,75034,
El Paso,TX,79912,
Houston,TX,77034,
Dallas,TX,75224,
Rowlett,TX,75089,
Katy,TX,77450,
Bonham,TX,75418,
Bowie,TX,76230,
Boyd,TX,76023,
Bulverde,TX,78163,
San Antonio,TX,78210,
Austin,TX,78758,
Allen,TX,75002,
Lubbock,TX,79424,
Royse City,TX,75189,
Bremond,TX,76629,
Decatur,TX,76234,
Fort Worth,TX,76108,
Cypress,TX,77433,
Victoria,TX,77905,
Dallas,TX,75243,
Brownsboro,TX,75756,
Buffalo,TX,75831,
El Paso,TX,79925,
Burleson,TX,76028,
Burnet,TX,78611,
San Antonio,TX,78215-1123,
Caddo Mills,TX,75135,
Cedar Park,TX,78613,
New Braunfels,TX,78130,
Amarillo,TX,79118,
Henderson,TX,75654,
Rancho Viejo,TX,78575,
Fort Worth,TX,76111,
Center Point,TX,78010,
Marion,TX,78124,
Tyler,TX,75707,
Mt. Pleasant,TX,75455,
Prosper,TX,75078,
China Spring,TX,76633,
Fort Worth,TX,76133,
Italy,TX,76651,
Leander,TX,78641,
Paris,TX,75462-9203,
Belton,TX,76513,
Austin,TX,78732,
Baytown,TX,77521,
Midland,TX,79705,
San Antonio,TX,78216,
Dumas,TX,79029,
Wichita Falls,TX,76306,
Pearland,TX,77581,
Houston,TX,77058,
Cleburne,TX,76033,
Cleveland,TX,77327,
Clifton,TX,76634,
Clyde,TX,79510,
Wolfforth,TX,79382,
College Station,TX,77845,
Commerce,TX,75429,
Austin,TX,78753,
Copperas Cove,TX,76522,
Crandell,TX,75114,
Crane,TX,79731,
Crawford,TX,76638,
Sanger,TX,76266,
Crosby,TX,77532,
Cumby,TX,75433,
Brazoria,TX,77422,
Houston,TX,77065,
Keller,TX,76244,
Georgetown,TX,78626,
Katy,TX,77494,
McKinney,TX,75069,
Fredricksburg,TX,78624,
Wolfforth,TX,79382,
Lufkin,TX,75901,
Frisco,TX,75035,
Del Rio,TX,78840,
Boerne,TX,78006,
Royse City,TX,75189,
Denton,TX,76205,
Fort Worth,TX,76177,
Denton,TX,76208,
Denver City,TX,79323,
Detroit,TX,75436,
Dickinson,TX,77539,
Brownsville,TX,78521,
Donna,TX,78537,
Lancaster,TX,75134,
Sugar Land,TX,77478,
Duncanville,TX,75137,
Carrollton,TX,75077-4405,
San Antonio,TX,78216,
Winnie,TX,77665,
Midland,TX,79707,
San Antonio,TX,78217,
McKinney,TX,75071,
Edinburg,TX,78539,
Pearland,TX,77581,
Laredo,TX,78046,
Killeen,TX,76542,
Eustace,TX,75124,
Houston,TX,77040,
Houston,TX,77082,
Flatonia,TX,78941,
Quinlan,TX,75474,
Fort Worth,TX,76133,
Mission,TX,78572,
Friendswood,TX,77546,
Franklin,TX,77856,
Frankston,TX,75763,
Friona,TX,79035,
Frost,TX,76641,
Galveston,TX,77550,
Flower Mound,TX,75022,
Dallas,TX,75226,
Gatesville,TX,76528,
Beaumont,TX,77706,
Decatur,TX,76234,
Sugar Land,TX,77479,
Giddings,TX,78942,
Gilmer,TX,75644,
Tyler,TX,75701,
Glen Rose,TX,76043,
Baytown,TX,77520,
Grand Saline,TX,75140,
Midland,TX,79707,
Houston,TX,77079,
Lewisville,TX,75067,
The Woodlands,TX,77381,
Groesbeck,TX,76642,
Groveton,TX,75845,
Mission,TX,78572,
McKinney,TX,75071,
Hamilton,TX,76531,
Harker Heights,TX,76548,
Harlingen,TX,78552,
Houston,TX,77072,
Missouri City,TX,77459,
Houston,TX,77082,
San Antonio,TX,78260,
Dallas,TX,75205,
San Antonio,TX,78210,
Houston,TX,77077,
Hillsboro,TX,76645,
Temple,TX,76502,
Lewisville,TX,75067,
Donna,TX,78537,
Rockwall,TX,75087,
Iola,TX,77861,
Brownsville,TX,78521,
Lucas,TX,75002,
Pecos,TX,79772,
Conroe,TX,77384,
Brownwood,TX,76801,
San Antonio,TX,78258,
Frisco,TX,75034,
Cedar Park,TX,78613,
Katy,TX,77450,
Odessa,TX,79764,
El Paso,TX,79915,
San Marcos,TX,78666,
Plano,TX,75093,
Amarillo,TX,79124,
Rollingwood,TX,78746,
El Paso,TX,79912,
Tuscola,TX,79562,
Comfort,TX,78013,
Corsicana,TX,75110,
Austin,TX,78733,
Cypress,TX,77429,
Deer Park,TX,77536,
LaGrange,TX,78945,
Joshua,TX,76058,
Cypress,TX,77433,
Prosper,TX,75078,
Kyle,TX,78640,
Huntsville,TX,77340,
El Paso,TX,79922,
Joshua,TX,76058,
El Paso,TX,79938,
Katy,TX,77449,
Dallas,TX,75254,
El Paso,TX,79922,
Dallas,TX,75248,
Lantana,TX,76226,
Aledo,TX,76008,
Katy,TX,77493,
Kemp,TX,75143,
Dallas,TX,75254,
Amarillo,TX,79124,
Levelland,TX,79336,
Kermit,TX,79745,
Houston,TX,77025,
Austin,TX,78701,
Lakeway,TX,78734,
Killeen,TX,76543,
Ft. Worth,TX,76126,
Grand Prairie,TX,75052,
Addison,TX,75001,
The Woodlands,TX,77382,
Fort Worth,TX,76131,
Amarillo,TX,79124,
Amarillo,TX,79124,
Lago Vista,TX,78645,
Lamesa,TX,79331,
Lampasas,TX,76550,
Leander,TX,78641,
The Woodlands,TX,77382,
Houston,TX,77057,
Seabrook,TX,77586,
Fort Worth,TX,76126,
Brownsville,TX,78526,
Lexington,TX,78947,
League City,TX,77573,
Sinton,TX,78387,
Katy,TX,77494,
Sweetwater,TX,79556,
Llano,TX,78643,
Lubbock,TX,79423,
Lubbock,TX,79401,
Houston,TX,77089,
Laredo,TX,78046,
Mabank,TX,75147,
Madisonville,TX,77864,
Magnolia,TX,77354,
Odessa,TX,79762,
Alvin,TX,77511,
Dallas,TX,75206,
San Antonio,TX,78222,
Keller,TX,76248,
Amarillo,TX,79119,
Odessa,TX,79764,
The Colony,TX,75056,
Bellaire,TX,77401,
Maypearl,TX,76064,
McKinney,TX,75071,
McKinney,TX,75071,
Levelland,TX,79336,
Garden Ridge,TX,78266,
Houston,TX,77018,
Spring,TX,77379,
Krugerville,TX,76227,
Midland,TX,79707,
Midlothian,TX,76065,
Waco,TX,76712,
Wichita Falls,TX,76308,
Canyon,TX,79015,
Houston,TX,77025,
Corsicana,TX,75109,
Lubbock,TX,79413,
Moody,TX,76557,
Katy,TX,77449,
Mt. Pleasant,TX,75455,
Schertz,TX,78154,
Rowlett,TX,75089,
New Braunfels,TX,78132,
New Braunfels,TX,78130,
Diana,TX,75640,
Nocona,TX,76255,
Laredo,TX,78041,
Normangee,TX,77871,
Paris,TX,75460,
San Antonio,TX,78245,
Mansfield,TX,76063,
Onalaska,TX,77360,
El Paso,TX,79936,
Bushland,TX,79012,
Paint Rock,TX,76866,
Palestine,TX,75801,
Palmview,TX,78574,
Pampa,TX,79065,
El Paso,TX,79924,
Pasadena,TX,77504,
Austin,TX,78704,
Corpus Christi,TX,78418,
Weatherford,TX,76088,
Pecos,TX,79772,
Godley,TX,76044,
Odessa,TX,79762,
Frisco,TX,75034,
Pilot Point,TX,76258-4063,
Longview,TX,75604,
Texarkana,TX,75503,
Ponder,TX,76259-0278,
Victoria,TX,77905,
Stafford,TX,77477,
Emory,TX,75440,
El Paso,TX,79936,
Big Lake,TX,76932,
Red Oak,TX,75154,
Hutto,TX,78634,
Houston,TX,77015,
Houston,TX,77005,
Red Oak,TX,75154,
North Richland Hills,TX,76180,
Ft. Worth,TX,76108,
El Paso,TX,79932,
Daingerfield,TX,75638,
Rio Grande City,TX,78582,
El Paso,TX,79915,
Pflugerville,TX,78660,
Hewitt,TX,76643,
Plano,TX,75025,
Fairview,TX,75069,
Spring,TX,77386,
Rogers,TX,76569,
Tomball,TX,77355,
Bryan,TX,77808,
Edinburg,TX,78539,
Salado,TX,76571,
Smithville,TX,78957,
San Antonio,TX,78259,
San Benito,TX,78586,
San Diego,TX,78384,
Sanger,TX,76266,
Kingsville,TX,78363,
The Colony,TX,75056,
Schulenburg,TX,78956,
Amarillo,TX,79109,
Grapevine,TX,76051,
Frisco,TX,75034,
Houston,TX,77057,
Zapata,TX,78076,
Allen,TX,75013,
Highland Village,TX,75077,
Houston,TX,77006,
Mission,TX,78572,
Spring Branch,TX,78070,
Heath,TX,75032,
Shepherd,TX,77371,
Austin,TX,78748,
Houston,TX,77043,
Snyder,TX,79549,
El Paso,TX,79927,
Somerville,TX,77879,
Ft. Worth,TX,76133,
Edinburg,TX,78539,
Fort Worth,TX,76132,
El Paso,TX,79906,
Longview,TX,75605,
Austin,TX,78717,
Austin,TX,78735,
Bryan,TX,77807,
San Antonio,TX,78261,
Sunnyvale,TX,75182,
Waxahatchee,TX,75165,
Cleveland,TX,77327,
Carrollton,TX,75007,
Spring,TX,77386,
Teague,TX,75860,
Temple,TX,76504,
Commerce,TX,75428,
Fort Worth,TX,76129,
Richmond,TX,77406,
Lubbock,TX,79409,
Denton,TX,76209,
Houston,TX,77095,
Arlington,TX,76013,
Austin,TX,78749,
Whitehouse,TX,75791,
Dallas,TX,75225,
Thorndale,TX,76577,
Spring Branch,TX,78070,
Godley,TX,76044,
Houston,TX,77041,
Rockwall,TX,75087,
Spicewood,TX,78669,
Magnolia,TX,77354-6925,
Orange,TX,77632,
Tyler,TX,75701,
Laredo,TX,78045,
Arlington,TX,7609,
Tyler,TX,75799,
Odessa,TX,79762-0001,
Valley Mills,TX,76689,
Hidalgo,TX,78557,
Dumas,TX,79029,
Victoria,TX,77904,
Waco,TX,76711,
Austin,TX,78738,
Rockdale,TX,76567,
West,TX,76691,
Canyon,TX,79016,
Houston,TX,77077,
Palestine,TX,75803,
Longview,TX,75603,
Whitehouse,TX,75791,
Kyle,TX,78640,
Wilderado,TX,79098,
Wimberley,TX,78676,
Frisco,TX,75034,
Louisville,TX,75056,
Yorktown,TX,78164,
Amarillo,TX,79110,
Salt Lake City,UT,84121,
Draper,UT,84020,
Beaver,UT,84713,
Ogden,UT,84405,
Bountiful,UT,84010,
Heber City,UT,84032,
Tropic,UT,84776,
Woods Cross,UT,84087,
Manila,UT,84046,
Roosevelt,UT,84066,
Cedar Hills,UT,84062,
Enterprise,UT,84725,
Logan,UT,84321,
West Valley City,UT,84119,
West Point,UT,84015,
Alpine,UT,84004,
Hildale,UT,84784,
Highland,UT,84003,
Erda,UT,84074,
Lindon,UT,84042,
Manti,UT,84642,
Lindon,UT,84042,
Hooper,UT,84315,
Farmington,UT,84025,
Salina,UT,84654,
Highland,UT,84003,
Logan,UT,84341-6899,
Murray,UT,84107,
Highland,UT,84003,
Pleasant View,UT,84414,
Winchester,VA,22603,
Covington,VA,24426,
Blacksburg,VA,24060,
Winchester,VA,22602,
Fairfax,VA,22032,
Broadway,VA,22815,
Lynchburg,VA,24503,
Herndon,VA,20171,
Colonial Beach,VA,22443,
Chantilly,VA,20152,
The Plains,VA,20198,
Glen Allen,VA,23059,
Harrisonburg,VA,22802,
Fredericksburg,VA,22408,
Mechanicsville,VA,23116,
Roanoke,VA,24018,
Falls Church,VA,22044,
Ph.(434),VA,525-2674,
Aldie,VA,20105,
Salem,VA,24153,
Waynesboro,VA,22980,
Front Royal,VA,22630,
McLean,VA,22101,
Purcellville,VA,20132,
Warrenton,VA,20187-4724,
Salem,VA,24153,
Rural Retreat,VA,24368,
Ashland,VA,23005,
Alexandria,VA,22311,
Alexandria,VA,22315,
Saltville,VA,24370,
Sterling,VA,20166,
Warrenton,VA,20187,
Chantilly,VA,20151,
Roanoke,VA,24015,
Chevy Chase,VA,20815,
Vienna,VA,22182,
Pulaski,VA,24301,
Fredricksburg,VA,22408,
Staunton,VA,24401,
Stafford,VA,22554,
North Chesterfield,VA,23235,
Ashburn,VA,20147,
Woodbridge,VA,22192,
Manassas,VA,20109,
Richmond,VA,23238,
Forest,VA,24551,
Charlottesville,VA,22903,
McLean,VA,22102,
Virginia Beach,VA,23456,
Bristol,VA,24201,
Aldia,VA,20105,
Williamsburg,VA,23185,
Fairfax,VA,22031,
Fairfax,VA,22031,
Christiansted,VI,820,
St. Thomas,VI,802,
Middlebury,VT,5753,
Aberdeen,WA,98520,
Tacoma,WA,98403,
Maple Valley,WA,98038,
Chewelah,WA,99109,
Spokane Valley,WA,99037,
Spokane,WA,99202,
Colbert,WA,99005,
Bainbridge Island,WA,98110,
Ellensburg,WA,98926-7525,
Kirkland,WA,98033,
Pasco,WA,99301,
Colville,WA,99114,
Vancouver,WA,98683,
Prosser,WA,99350,
Lynden,WA,98264,
Spokane,WA,99216,
Seattle,WA,98115,
White Salmon,WA,98672,
Seatac,WA,98198,
Seattle,WA,98109-4433,
Goldendale,WA,98620,
Vancouver,WA,98685,
Tacoma,WA,98445,
Moses Lake,WA,98837,
Kingston,WA,98346,
Puyallup,WA,98372,
Lake Stevens,WA,98258,
Yakima,WA,98908,
Puyallup,WA,98375,
Duvall,WA,98019,
West Richland,WA,99353,
Spokane,WA,99218,
Tacoma,WA,98407,
Shelton,WA,98584-8045,
Longview,WA,98632,
picking up system at,WA,,
Vancouver,WA,98685-2831,
Okanogan,WA,98840,
Puyallup,WA,98372,
Spokane,WA,99205,
Gig Harbor,WA,98332,
Marysville,WA,98271,
Lakewood,WA,98498,
Kirkland,WA,98033,
Tumwater,WA,98512,
Raymond,WA,98577,
Redmond,WA,98052,
Ritzville,WA,99169,
La Center,WA,98629,
University Place,WA,98466,
Kent,WA,98032,
Sumner,WA,98390,
Olympia,WA,98512,
Tacoma,WA,98422,
College Place,WA,99324,
Walla Walla,WA,99362,
Woodinville,WA,98072,
Madison,WI,53716,
Arcadia,WI,54612,
Bangor,WI,54614,
Pewaukee,WI,53072,
Appleton,WI,54915-3802,
Woodville,WI,54028,
Black River Falls,WI,54615,
Brodhead,WI,53520,
Brookfield,WI,53005,
Cambria,WI,53923,
Kenosha,WI,53140,
Waupun,WI,53963,
Park Falls,WI,54552,
Clinton,WI,53525,
Colfax,WI,54730,
Janesville,WI,53545,
Delavan,WI,53115,
Neenah,WI,54956,
Edgerton,WI,53534,
Elk Mound,WI,54739,
Elkhorn,WI,53121,
Elmwood,WI,54740,
Racine,WI,53404,
Pewaukee,WI,53072,
Appleton,WI,54913,
River Falls,WI,54022,
Germantown,WI,53022,
Gilman,WI,54433,
Cottage Grove,WI,53527,
Hayward,WI,54843,
West Bend,WI,53095,
Kenosha,WI,53144,
Luxemburg,WI,54217,
Jefferson,WI,53549,
Wilmot,WI,53192,
Menomonee Falls,WI,53051,
Bloomer,WI,54724,
Milwaukee,WI,53204,
Watertown,WI,53094,
Oconomowoc,WI,53066,
Kewaskum,WI,53040,
Kewaunee,WI,54216,
Ashland,WI,54806,
Eau Claire,WI,54701,
Milwaukee,WI,53233,
Menomonie,WI,54751,
Mercer,WI,54547,
Middleton,WI,53562,
Mondovi,WI,54755-1197,
Green Bay,WI,54311,
Nekoosa,WI,54451,
New Berlin,WI,53146,
New Richmond,WI,54017,
Maple,WI,54854,
Oak Creek,WI,53154,
Oshkosh,WI,54902,
Oconomowoc,WI,53066,
Owen,WI,54460,
Orfordville,WI,53576,
Merrimac,WI,53561,
Potosi,WI,53820,
Prairie du Chien,WI,53821,
Princeton,WI,54968,
Rice Lake,WI,54868,
Milwaukee,WI,53221,
De Pere,WI,54115,
Sheboygan,WI,53081,
Menominee Falls,WI,53051,
Shiocton,WI,54170,
Slinger,WI,53086,
Pewaukee,WI,53022,
Stanley,WI,54768,
Freedom,WI,54130,
Presumed,WI,53072,
Plainfield,WI,54966,
Union Grove,WI,53182,
Platteville,WI,53818,
Waupaca,WI,54981,
Wauwatosa,WI,53213,
Wauwatosa,WI,53222,
Wauzeka,WI,53821,
Appleton,WI,54914-3405,
West Salem,WI,54669,
Whitewater,WI,53190,
Greenfield,WI,53228,
Williams Bay,WI,53191,
Pleasant Prairie,WI,53158,
Ridgeley,WV,26753,
Romney,WV,26757,
Hurricane,WV,25526,
Amherstdale,WV,25607,
Keyser,WV,26726,
New Cumberland,WV,26047,
Vienna,WV,26105,
Ellenboro,WV,26346,
Spencer,WV,25276,
Clarksburg,WV,26301,
Salem,WV,26426,
Chester,WV,26034,
Weirton,WV,26062,
Morgantown,WV,26507,
Poca,WV,25159,
Riverton,WY,82501,
Cheyenne,WY,82009,
Powell,WY,82435,
Cheyenne,WY,82009,
Torrington,WY,82240,
Evanston,WY,82930,
Cheyenne,WY,82009,
Casper,WY,82609,
Cheyenne,WY,82007,
Rawlins,WY,82301,
Riverton,WY,82501,
Pine Bluffs,WY,82082,
Gillette,WY,82716,
Yoder,WY,82244,
Jackson,WY,83001,
Casper,WY,82604,